{
  "type": "FeatureCollection",
  "features": [
    {
      "type": "Feature",
      "properties": {
        "norad_id": 31160,
        "name": "FENGYUN 1C DEB",
        "group": "fengyun-1c-debris",
        "lat": 51.19391665369764,
        "lon": -111.99230234201698,
        "alt_km": 890.3869951880479,
        "timestamp": "2025-12-26T08:37:54.860981+00:00",
        "meta_object_name": "FENGYUN 1C DEB",
        "meta_object_id": "1999-025BHN",
        "meta_epoch": "2025-12-23T21:41:00.062016",
        "meta_mean_motion": 13.99593412,
        "meta_eccentricity": 0.0057633,
        "meta_inclination": 99.0833,
        "meta_ra_of_asc_node": 54.0972,
        "meta_arg_of_pericenter": 224.8785,
        "meta_mean_anomaly": 134.7712,
        "meta_ephemeris_type": 0,
        "meta_classification_type": "U",
        "meta_norad_cat_id": 31160,
        "meta_element_set_no": 999,
        "meta_rev_at_epoch": 69755,
        "meta_bstar": -5.6933e-05,
        "meta_mean_motion_dot": -1.29e-06,
        "meta_mean_motion_ddot": 0,
        "tle_line1": "1 31160U 99025BHN 25357.90347294 -.00000129  00000+0 -56933-4 0  9999",
        "tle_line2": "2 31160  99.0833  54.0972 0057633 224.8785 134.7712 13.99593412697555"
      },
      "geometry": {
        "type": "Point",
        "coordinates": [
          -111.99230234201698,
          51.19391665369764
        ]
      }
    },
    {
      "type": "Feature",
      "properties": {
        "norad_id": 31161,
        "name": "FENGYUN 1C DEB",
        "group": "fengyun-1c-debris",
        "lat": -72.17884791287149,
        "lon": 50.16762129607417,
        "alt_km": 824.7846846408138,
        "timestamp": "2025-12-26T08:37:54.860991+00:00",
        "meta_object_name": "FENGYUN 1C DEB",
        "meta_object_id": "1999-025BHP",
        "meta_epoch": "2025-12-23T19:38:15.716544",
        "meta_mean_motion": 14.09262541,
        "meta_eccentricity": 0.00679423,
        "meta_inclination": 98.7477,
        "meta_ra_of_asc_node": 19.0826,
        "meta_arg_of_pericenter": 318.5499,
        "meta_mean_anomaly": 41.0529,
        "meta_ephemeris_type": 0,
        "meta_classification_type": "U",
        "meta_norad_cat_id": 31161,
        "meta_element_set_no": 999,
        "meta_rev_at_epoch": 96258,
        "meta_bstar": 0.00024236438,
        "meta_mean_motion_dot": 3.87e-06,
        "meta_mean_motion_ddot": 0,
        "tle_line1": "1 31161U 99025BHP 25357.81823746  .00000387  00000+0  24236-3 0  9995",
        "tle_line2": "2 31161  98.7477  19.0826 0067942 318.5499  41.0529 14.09262541962584"
      },
      "geometry": {
        "type": "Point",
        "coordinates": [
          50.16762129607417,
          -72.17884791287149
        ]
      }
    },
    {
      "type": "Feature",
      "properties": {
        "norad_id": 31165,
        "name": "FENGYUN 1C DEB",
        "group": "fengyun-1c-debris",
        "lat": 21.52043365994349,
        "lon": 57.843759086619436,
        "alt_km": 705.1215228103292,
        "timestamp": "2025-12-26T08:37:54.861001+00:00",
        "meta_object_name": "FENGYUN 1C DEB",
        "meta_object_id": "1999-025BHT",
        "meta_epoch": "2025-12-24T02:48:27.724320",
        "meta_mean_motion": 14.71218938,
        "meta_eccentricity": 0.00695704,
        "meta_inclination": 98.8836,
        "meta_ra_of_asc_node": 58.935,
        "meta_arg_of_pericenter": 199.3227,
        "meta_mean_anomaly": 191.4631,
        "meta_ephemeris_type": 0,
        "meta_classification_type": "U",
        "meta_norad_cat_id": 31165,
        "meta_element_set_no": 999,
        "meta_rev_at_epoch": 98922,
        "meta_bstar": 0.0013134818,
        "meta_mean_motion_dot": 8.356e-05,
        "meta_mean_motion_ddot": 0,
        "tle_line1": "1 31165U 99025BHT 25358.11698755  .00008356  00000+0  13135-2 0  9992",
        "tle_line2": "2 31165  98.8836  58.9350 0069570 199.3227 191.4631 14.71218938989229"
      },
      "geometry": {
        "type": "Point",
        "coordinates": [
          57.843759086619436,
          21.52043365994349
        ]
      }
    },
    {
      "type": "Feature",
      "properties": {
        "norad_id": 31168,
        "name": "FENGYUN 1C DEB",
        "group": "fengyun-1c-debris",
        "lat": 72.77863128455348,
        "lon": -16.905626072128804,
        "alt_km": 652.2657590975696,
        "timestamp": "2025-12-26T08:37:54.861011+00:00",
        "meta_object_name": "FENGYUN 1C DEB",
        "meta_object_id": "1999-025BHW",
        "meta_epoch": "2025-12-25T02:42:28.009152",
        "meta_mean_motion": 14.67430174,
        "meta_eccentricity": 0.0108315,
        "meta_inclination": 98.8908,
        "meta_ra_of_asc_node": 131.4096,
        "meta_arg_of_pericenter": 25.5219,
        "meta_mean_anomaly": 335.1276,
        "meta_ephemeris_type": 0,
        "meta_classification_type": "U",
        "meta_norad_cat_id": 31168,
        "meta_element_set_no": 999,
        "meta_rev_at_epoch": 99302,
        "meta_bstar": 0.00058704,
        "meta_mean_motion_dot": 3.566e-05,
        "meta_mean_motion_ddot": 0,
        "tle_line1": "1 31168U 99025BHW 25359.11282418  .00003566  00000+0  58704-3 0  9991",
        "tle_line2": "2 31168  98.8908 131.4096 0108315  25.5219 335.1276 14.67430174993026"
      },
      "geometry": {
        "type": "Point",
        "coordinates": [
          -16.905626072128804,
          72.77863128455348
        ]
      }
    },
    {
      "type": "Feature",
      "properties": {
        "norad_id": 31169,
        "name": "FENGYUN 1C DEB",
        "group": "fengyun-1c-debris",
        "lat": 57.88995928586692,
        "lon": -137.697928531727,
        "alt_km": 830.3535675606608,
        "timestamp": "2025-12-26T08:37:54.861021+00:00",
        "meta_object_name": "FENGYUN 1C DEB",
        "meta_object_id": "1999-025BHX",
        "meta_epoch": "2025-12-24T00:31:09.564672",
        "meta_mean_motion": 14.2655263,
        "meta_eccentricity": 0.00572713,
        "meta_inclination": 99.1564,
        "meta_ra_of_asc_node": 24.9651,
        "meta_arg_of_pericenter": 344.5259,
        "meta_mean_anomaly": 15.4167,
        "meta_ephemeris_type": 0,
        "meta_classification_type": "U",
        "meta_norad_cat_id": 31169,
        "meta_element_set_no": 999,
        "meta_rev_at_epoch": 57265,
        "meta_bstar": 0.0020668623,
        "meta_mean_motion_dot": 5.027e-05,
        "meta_mean_motion_ddot": 0,
        "tle_line1": "1 31169U 99025BHX 25358.02163848  .00005027  00000+0  20669-2 0  9998",
        "tle_line2": "2 31169  99.1564  24.9651 0057271 344.5259  15.4167 14.26552630572650"
      },
      "geometry": {
        "type": "Point",
        "coordinates": [
          -137.697928531727,
          57.88995928586692
        ]
      }
    },
    {
      "type": "Feature",
      "properties": {
        "norad_id": 31171,
        "name": "FENGYUN 1C DEB",
        "group": "fengyun-1c-debris",
        "lat": -81.70518908425102,
        "lon": 93.91805137481401,
        "alt_km": 673.3429845440969,
        "timestamp": "2025-12-26T08:37:54.861031+00:00",
        "meta_object_name": "FENGYUN 1C DEB",
        "meta_object_id": "1999-025BHZ",
        "meta_epoch": "2025-12-23T05:49:54.685056",
        "meta_mean_motion": 14.35071995,
        "meta_eccentricity": 0.01531947,
        "meta_inclination": 98.0162,
        "meta_ra_of_asc_node": 346.1686,
        "meta_arg_of_pericenter": 284.8924,
        "meta_mean_anomaly": 90.6441,
        "meta_ephemeris_type": 0,
        "meta_classification_type": "U",
        "meta_norad_cat_id": 31171,
        "meta_element_set_no": 999,
        "meta_rev_at_epoch": 95981,
        "meta_bstar": 0.0038414381,
        "meta_mean_motion_dot": 0.00012487,
        "meta_mean_motion_ddot": 0,
        "tle_line1": "1 31171U 99025BHZ 25357.24299404  .00012487  00000+0  38414-2 0  9997",
        "tle_line2": "2 31171  98.0162 346.1686 0153194 284.8924  90.6441 14.35071995959815"
      },
      "geometry": {
        "type": "Point",
        "coordinates": [
          93.91805137481401,
          -81.70518908425102
        ]
      }
    },
    {
      "type": "Feature",
      "properties": {
        "norad_id": 31172,
        "name": "FENGYUN 1C DEB",
        "group": "fengyun-1c-debris",
        "lat": -2.2422187963459743,
        "lon": 4.76767236107806,
        "alt_km": 857.1406870045403,
        "timestamp": "2025-12-26T08:37:54.861041+00:00",
        "meta_object_name": "FENGYUN 1C DEB",
        "meta_object_id": "1999-025BJA",
        "meta_epoch": "2025-12-25T05:48:08.699040",
        "meta_mean_motion": 14.31524634,
        "meta_eccentricity": 0.0148292,
        "meta_inclination": 98.4251,
        "meta_ra_of_asc_node": 3.3501,
        "meta_arg_of_pericenter": 231.2263,
        "meta_mean_anomaly": 127.5595,
        "meta_ephemeris_type": 0,
        "meta_classification_type": "U",
        "meta_norad_cat_id": 31172,
        "meta_element_set_no": 999,
        "meta_rev_at_epoch": 97805,
        "meta_bstar": 0.00013612,
        "meta_mean_motion_dot": 3.62e-06,
        "meta_mean_motion_ddot": 0,
        "tle_line1": "1 31172U 99025BJA 25359.24176735  .00000362  00000+0  13612-3 0  9994",
        "tle_line2": "2 31172  98.4251   3.3501 0148292 231.2263 127.5595 14.31524634978058"
      },
      "geometry": {
        "type": "Point",
        "coordinates": [
          4.76767236107806,
          -2.2422187963459743
        ]
      }
    }
  ]
}